ESTCUBE 1               
1 39161U 13021C   21229.16586425  .00000107  00000-0  24583-4 0  9994
2 39161  97.9367 308.9590 0008919 324.4170  35.6460 14.72513379444687